{"fetched_at":"2026-03-29T16:36:15Z","count":15609,"tles":[{"name":"STARLINK-30377","line1":"1 57825U 23138T   26087.79878874 -.00002316  00000+0 -74685-4 0  9992","line2":"2 57825  43.0034 126.0144 0001309 269.2590  90.8112 15.27576849141558","category":"Starlink"}]}