{
  "norad_id": 57825,
  "name": "STARLINK-30377",
  "history": [
    {
      "epoch": "2026-03-28T19:10:15.347136",
      "apogee_km": 483.956661778484,
      "perigee_km": 482.1604007883925,
      "latitude_deg": 40.917012346435136,
      "longitude_deg": 39.18371904012747,
      "semi_major_axis_km": 6861.195531283438,
      "eccentricity": 0.0001309,
      "inclination_deg": 43.0034,
      "raan_deg": 126.0144,
      "arg_perigee_deg": 269.259,
      "mean_anomaly_deg": 90.8112,
      "mean_motion_rev_day": 15.27576849
    }
  ]
}